{
  "type": "FeatureCollection",
  "features": [
    {
      "type": "Feature",
      "properties": {
        "norad_id": 66460,
        "name": "STARLINK-35424",
        "group": "last-30-days",
        "lat": -42.557632536178865,
        "lon": 32.07848178832958,
        "alt_km": 418.47324534247855,
        "timestamp": "2025-12-05T16:54:13.485450+00:00",
        "meta_object_name": "STARLINK-35424",
        "meta_object_id": "2025-262E",
        "meta_epoch": "2025-12-05T06:00:02.000160",
        "meta_mean_motion": 15.51215751,
        "meta_eccentricity": 0.00010191,
        "meta_inclination": 43.0001,
        "meta_ra_of_asc_node": 114.9116,
        "meta_arg_of_pericenter": 291.0003,
        "meta_mean_anomaly": 326.9782,
        "meta_ephemeris_type": 0,
        "meta_classification_type": "U",
        "meta_norad_cat_id": 66460,
        "meta_element_set_no": 999,
        "meta_rev_at_epoch": 443,
        "meta_bstar": -0.017279042,
        "meta_mean_motion_dot": -0.00951041,
        "meta_mean_motion_ddot": 0,
        "tle_line1": "1 66460U 25262E   25339.25002315 -.00951041  00000+0 -17279-1 0  9997",
        "tle_line2": "2 66460  43.0001 114.9116 0001019 291.0003 326.9782 15.51215751  4432"
      },
      "geometry": {
        "type": "Point",
        "coordinates": [
          32.07848178832958,
          -42.557632536178865
        ]
      }
    },
    {
      "type": "Feature",
      "properties": {
        "norad_id": 66461,
        "name": "STARLINK-35132",
        "group": "last-30-days",
        "lat": -42.30570846837529,
        "lon": 34.64854991942777,
        "alt_km": 418.4981186663781,
        "timestamp": "2025-12-05T16:54:13.485459+00:00",
        "meta_object_name": "STARLINK-35132",
        "meta_object_id": "2025-262F",
        "meta_epoch": "2025-12-05T06:00:02.000160",
        "meta_mean_motion": 15.51206195,
        "meta_eccentricity": 8.836e-05,
        "meta_inclination": 43.0001,
        "meta_ra_of_asc_node": 114.9067,
        "meta_arg_of_pericenter": 282.4655,
        "meta_mean_anomaly": 337.432,
        "meta_ephemeris_type": 0,
        "meta_classification_type": "U",
        "meta_norad_cat_id": 66461,
        "meta_element_set_no": 999,
        "meta_rev_at_epoch": 443,
        "meta_bstar": -0.016969448,
        "meta_mean_motion_dot": -0.0093504,
        "meta_mean_motion_ddot": 0,
        "tle_line1": "1 66461U 25262F   25339.25002315 -.00935040  00000+0 -16969-1 0  9994",
        "tle_line2": "2 66461  43.0001 114.9067 0000883 282.4655 337.4320 15.51206195  4430"
      },
      "geometry": {
        "type": "Point",
        "coordinates": [
          34.64854991942777,
          -42.30570846837529
        ]
      }
    },
    {
      "type": "Feature",
      "properties": {
        "norad_id": 66462,
        "name": "STARLINK-35499",
        "group": "last-30-days",
        "lat": -41.997034544377044,
        "lon": 37.19049969692422,
        "alt_km": 418.4282225919569,
        "timestamp": "2025-12-05T16:54:13.485469+00:00",
        "meta_object_name": "STARLINK-35499",
        "meta_object_id": "2025-262G",
        "meta_epoch": "2025-12-05T06:00:02.000160",
        "meta_mean_motion": 15.51201341,
        "meta_eccentricity": 9.653e-05,
        "meta_inclination": 42.9998,
        "meta_ra_of_asc_node": 114.9015,
        "meta_arg_of_pericenter": 284.7848,
        "meta_mean_anomaly": 337.0325,
        "meta_ephemeris_type": 0,
        "meta_classification_type": "U",
        "meta_norad_cat_id": 66462,
        "meta_element_set_no": 999,
        "meta_rev_at_epoch": 443,
        "meta_bstar": -0.016863567,
        "meta_mean_motion_dot": -0.00929537,
        "meta_mean_motion_ddot": 0,
        "tle_line1": "1 66462U 25262G   25339.25002315 -.00929537  00000+0 -16864-1 0  9993",
        "tle_line2": "2 66462  42.9998 114.9015 0000965 284.7848 337.0325 15.51201341  4436"
      },
      "geometry": {
        "type": "Point",
        "coordinates": [
          37.19049969692422,
          -41.997034544377044
        ]
      }
    },
    {
      "type": "Feature",
      "properties": {
        "norad_id": 66463,
        "name": "STARLINK-35463",
        "group": "last-30-days",
        "lat": -41.211097218480035,
        "lon": 42.209648863504846,
        "alt_km": 418.24629022226145,
        "timestamp": "2025-12-05T16:54:13.485479+00:00",
        "meta_object_name": "STARLINK-35463",
        "meta_object_id": "2025-262H",
        "meta_epoch": "2025-12-05T06:00:02.000160",
        "meta_mean_motion": 15.51200767,
        "meta_eccentricity": 0.00011389,
        "meta_inclination": 42.9999,
        "meta_ra_of_asc_node": 114.8913,
        "meta_arg_of_pericenter": 269.6907,
        "meta_mean_anomaly": 355.9567,
        "meta_ephemeris_type": 0,
        "meta_classification_type": "U",
        "meta_norad_cat_id": 66463,
        "meta_element_set_no": 999,
        "meta_rev_at_epoch": 443,
        "meta_bstar": -0.016555116,
        "meta_mean_motion_dot": -0.0091388,
        "meta_mean_motion_ddot": 0,
        "tle_line1": "1 66463U 25262H   25339.25002315 -.00913880  00000+0 -16555-1 0  9995",
        "tle_line2": "2 66463  42.9999 114.8913 0001138 269.6907 355.9567 15.51200767  4433"
      },
      "geometry": {
        "type": "Point",
        "coordinates": [
          42.209648863504846,
          -41.211097218480035
        ]
      }
    },
    {
      "type": "Feature",
      "properties": {
        "norad_id": 66464,
        "name": "STARLINK-35435",
        "group": "last-30-days",
        "lat": -41.63311408496287,
        "lon": 39.706825485099685,
        "alt_km": 418.44069367051816,
        "timestamp": "2025-12-05T16:54:13.485488+00:00",
        "meta_object_name": "STARLINK-35435",
        "meta_object_id": "2025-262J",
        "meta_epoch": "2025-12-05T06:00:02.000160",
        "meta_mean_motion": 15.51210143,
        "meta_eccentricity": 9.483e-05,
        "meta_inclination": 43.0001,
        "meta_ra_of_asc_node": 114.8967,
        "meta_arg_of_pericenter": 284.6533,
        "meta_mean_anomaly": 339.0791,
        "meta_ephemeris_type": 0,
        "meta_classification_type": "U",
        "meta_norad_cat_id": 66464,
        "meta_element_set_no": 999,
        "meta_rev_at_epoch": 443,
        "meta_bstar": -0.017159035,
        "meta_mean_motion_dot": -0.00944779,
        "meta_mean_motion_ddot": 0,
        "tle_line1": "1 66464U 25262J   25339.25002315 -.00944779  00000+0 -17159-1 0  9998",
        "tle_line2": "2 66464  43.0001 114.8967 0000948 284.6533 339.0791 15.51210143  4430"
      },
      "geometry": {
        "type": "Point",
        "coordinates": [
          39.706825485099685,
          -41.63311408496287
        ]
      }
    },
    {
      "type": "Feature",
      "properties": {
        "norad_id": 66465,
        "name": "STARLINK-35448",
        "group": "last-30-days",
        "lat": -40.21308094526425,
        "lon": 47.08946274912604,
        "alt_km": 418.168370196684,
        "timestamp": "2025-12-05T16:54:13.485497+00:00",
        "meta_object_name": "STARLINK-35448",
        "meta_object_id": "2025-262K",
        "meta_epoch": "2025-12-05T06:00:02.000160",
        "meta_mean_motion": 15.5117474,
        "meta_eccentricity": 0.00013629,
        "meta_inclination": 42.9999,
        "meta_ra_of_asc_node": 114.882,
        "meta_arg_of_pericenter": 256.4308,
        "meta_mean_anomaly": 13.0743,
        "meta_ephemeris_type": 0,
        "meta_classification_type": "U",
        "meta_norad_cat_id": 66465,
        "meta_element_set_no": 999,
        "meta_rev_at_epoch": 443,
        "meta_bstar": -0.016054459,
        "meta_mean_motion_dot": -0.00875897,
        "meta_mean_motion_ddot": 0,
        "tle_line1": "1 66465U 25262K   25339.25002315 -.00875897  00000+0 -16054-1 0  9996",
        "tle_line2": "2 66465  42.9999 114.8820 0001362 256.4308  13.0743 15.51174740  4439"
      },
      "geometry": {
        "type": "Point",
        "coordinates": [
          47.08946274912604,
          -40.21308094526425
        ]
      }
    },
    {
      "type": "Feature",
      "properties": {
        "norad_id": 66466,
        "name": "STARLINK-35388",
        "group": "last-30-days",
        "lat": -39.64658451478143,
        "lon": 49.439265913888185,
        "alt_km": 418.3968809775224,
        "timestamp": "2025-12-05T16:54:13.485508+00:00",
        "meta_object_name": "STARLINK-35388",
        "meta_object_id": "2025-262L",
        "meta_epoch": "2025-12-05T06:00:02.000160",
        "meta_mean_motion": 15.51210787,
        "meta_eccentricity": 8.935e-05,
        "meta_inclination": 43.0001,
        "meta_ra_of_asc_node": 114.8761,
        "meta_arg_of_pericenter": 281.5226,
        "meta_mean_anomaly": 349.8775,
        "meta_ephemeris_type": 0,
        "meta_classification_type": "U",
        "meta_norad_cat_id": 66466,
        "meta_element_set_no": 999,
        "meta_rev_at_epoch": 443,
        "meta_bstar": -0.01719182,
        "meta_mean_motion_dot": -0.00946447,
        "meta_mean_motion_ddot": 0,
        "tle_line1": "1 66466U 25262L   25339.25002315 -.00946447  00000+0 -17192-1 0  9991",
        "tle_line2": "2 66466  43.0001 114.8761 0000893 281.5226 349.8775 15.51210787  4433"
      },
      "geometry": {
        "type": "Point",
        "coordinates": [
          49.439265913888185,
          -39.64658451478143
        ]
      }
    }
  ]
}